NORAD_CAT_ID,OBJECT_NAME,OBJECT_TYPE,EPOCH,MEAN_MOTION,ECCENTRICITY,INCLINATION,RA_OF_ASC_NODE,ARG_OF_PERICENTER,MEAN_ANOMALY,BSTAR,MEAN_MOTION_DOT,MEAN_MOTION_DDOT,TLE_LINE0,TLE_LINE1,TLE_LINE2,SEMIMAJOR_AXIS,PERIOD,APOGEE,PERIGEE,DECAYED
51106.0,STARLINK-3176,PAYLOAD,2022-03-30 02:00:01,15.731494199999998,0.000351,53.2126,287.8927,6.4282,304.2881,0.00037403,0.00052097,0.0,0 STARLINK-3176,1 51106U 22005C   22089.08334491  .00052097  00000-0  37403-3 0  9998,2 51106  53.2126 287.8927 0003510   6.4282 304.2881 15.73149420 12340,6728.0390000000025,91.536,352.266,347.543,0.0
51106.0,STARLINK-3176,PAYLOAD,2022-03-30 12:00:00,15.73339861,0.0003259,53.215,285.815,7.9860000000000015,143.8297,-0.0034762,-0.00465501,0.0,0 STARLINK-3176,1 51106U 22005C   22089.50001157 -.00465501  00000-0 -34762-2 0  9999,2 51106  53.2150 285.8150 0003259   7.9860 143.8297 15.73339861 12406,6727.496,91.525,351.55400000000014,347.1690000000001,0.0
51106.0,STARLINK-3176,PAYLOAD,2022-03-30 14:00:01,15.73253059,0.0003215,53.2155,285.4003,7.7295,256.4078,-0.0030587,-0.00410745,0.0,0 STARLINK-3176,1 51106U 22005C   22089.58335648 -.00410745  00000-0 -30587-2 0  9993,2 51106  53.2155 285.4003 0003215   7.7295 256.4078 15.73253059  3677,6727.744000000002,91.53,351.772,347.446,0.0
51106.0,STARLINK-3176,PAYLOAD,2022-03-30 20:00:01,15.73125136,0.0003331,53.217,284.1577,6.1632,234.5277,-0.0040609,-0.00534397,0.0,0 STARLINK-3176,1 51106U 22005C   22089.83334491 -.00534397  00000-0 -40609-2 0  9992,2 51106  53.2170 284.1577 0003331   6.1632 234.5277 15.73125136 12462,6728.109,91.538,352.215,347.732,0.0
51106.0,STARLINK-3176,PAYLOAD,2022-03-30 22:00:00,15.73130226,0.0003502,53.2172,283.7433,4.7022,348.1542,-0.0056107,-0.0072223,0.0,0 STARLINK-3176,1 51106U 22005C   22089.91667824 -.00722230  00000-0 -56107-2 0  9995,2 51106  53.2172 283.7433 0003502   4.7022 348.1542 15.73130226  3729,6728.094,91.537,352.315,347.603,0.0
51106.0,STARLINK-3176,PAYLOAD,2022-03-31 06:00:00,15.72585212,0.0003465,53.2166,282.093,0.938,80.4655,-0.0053182,-0.00672675,0.0,0 STARLINK-3176,1 51106U 22005C   22090.25001157 -.00672675  00000-0 -53182-2 0  9992,2 51106  53.2166 282.0930 0003465   0.9380  80.4655 15.72585212 12526,6729.649,91.569,353.845,349.182,0.0
51106.0,STARLINK-3176,PAYLOAD,2022-03-31 14:00:01,15.72106741,0.0003488,53.2175,280.4394,7.1996,162.1096,-0.0058167,-0.00717007,0.0,0 STARLINK-3176,1 51106U 22005C   22090.58334491 -.00717007  00000-0 -58167-2 0  9995,2 51106  53.2175 280.4394 0003488   7.1996 162.1096 15.72106741  3690,6731.014,91.597,355.227,350.531,0.0
51106.0,STARLINK-3176,PAYLOAD,2022-03-31 22:00:00,15.71451175,0.0003743,53.2164,278.7985,307.6121,309.0697,-0.004175,-0.00512897,0.0,0 STARLINK-3176,1 51106U 22005C   22090.91667824 -.00512897  00000-0 -41750-2 0  9991,2 51106  53.2164 278.7985 0003743 307.6121 309.0697 15.71451175 12632,6732.886,91.635,357.271,352.231,0.0
51106.0,STARLINK-3176,PAYLOAD,2022-04-01 08:00:01,15.7091622,0.0005597,53.2168,276.7369,289.3426,165.5595,-0.0055809,-0.00659253,0.0,0 STARLINK-3176,1 51106U 22005C   22091.33334491 -.00659253  00000-0 -55809-2 0  9997,2 51106  53.2168 276.7369 0005597 289.3426 165.5595 15.70916220 12697,6734.4140000000025,91.666,360.048,352.51,0.0
51106.0,STARLINK-3176,PAYLOAD,2022-04-01 14:00:01,15.70586531,0.0004567,53.2177,275.4982,304.4836,124.8989,-0.0063581,-0.00733699,0.0,0 STARLINK-3176,1 51106U 22005C   22091.58334491 -.00733699  00000-0 -63581-2 0  9997,2 51106  53.2177 275.4982 0004567 304.4836 124.8989 15.70586531  3710,6735.357,91.685,360.298,354.146,0.0
51106.0,STARLINK-3176,PAYLOAD,2022-04-01 22:00:00,15.70070966,0.0003579,53.2176,273.8552,285.4554,229.3951,-0.0064191999999999,-0.0072525,0.0,0 STARLINK-3176,1 51106U 22005C   22091.91667824 -.00725250  00000-0 -64192-2 0  9996,2 51106  53.2176 273.8552 0003579 285.4554 229.3951 15.70070966 12788,6736.831,91.716,361.107,356.285,0.0
51106.0,STARLINK-3176,PAYLOAD,2022-04-02 22:00:01,15.68435736,0.000118,53.2163,268.9336,70.4111,337.2777,-0.0053896,-0.00578564,0.0,0 STARLINK-3176,1 51106U 22005C   22092.91668981 -.00578564  00000-0 -53896-2 0  9995,2 51106  53.2163 268.9336 0001180  70.4111 337.2777 15.68435736 12946,6741.513000000001,91.811,364.173,362.582,0.0
51106.0,STARLINK-3176,PAYLOAD,2022-04-03 06:00:00,15.6789858,0.0001205,53.2166,267.2918,48.0404,82.6149,-0.0051433,-0.0054243,0.0,0 STARLINK-3176,1 51106U 22005C   22093.25001157 -.00542430  00000-0 -51433-2 0  9997,2 51106  53.2166 267.2918 0001205  48.0404  82.6149 15.67898580 12999,6743.052,91.843,365.73,364.105,0.0
51106.0,STARLINK-3176,PAYLOAD,2022-04-03 14:00:01,15.67516969,0.0001375,53.2176,265.649,58.851000000000006,154.1432,-0.0070414,-0.00715811,0.0,0 STARLINK-3176,1 51106U 22005C   22093.58334491 -.00715811  00000-0 -70414-2 0  9998,2 51106  53.2176 265.6490 0001375  58.8510 154.1432 15.67516969 13058,6744.147,91.865,366.939,365.084,0.0
51106.0,STARLINK-3176,PAYLOAD,2022-04-03 22:00:00,15.67005559,0.0001255,53.2175,264.0134,58.4563,236.3272,-0.0071629999999999,-0.00713292,0.0,0 STARLINK-3176,1 51106U 22005C   22093.91667824 -.00713292  00000-0 -71630-2 0  9996,2 51106  53.2175 264.0134 0001255  58.4563 236.3272 15.67005559  3698,6745.614000000001,91.895,368.326,366.632,0.0
51106.0,STARLINK-3176,PAYLOAD,2022-04-04 14:00:01,15.65988449,0.000138,53.2175,260.7414,45.9854,50.5397,-0.0075198,-0.00718104,0.0,0 STARLINK-3176,1 51106U 22005C   22094.58334491 -.00718104  00000-0 -75198-2 0  9991,2 51106  53.2175 260.7414 0001380  45.9854  50.5397 15.65988449 13203,6748.534000000002,91.955,371.331,369.468,0.0
51106.0,STARLINK-3176,PAYLOAD,2022-04-04 22:00:00,15.65472822,0.0001294,53.2172,259.1093,61.2028,115.275,-0.0075638,-0.00708266,0.0,0 STARLINK-3176,1 51106U 22005C   22094.91667824 -.00708266  00000-0 -75638-2 0  9994,2 51106  53.2172 259.1093 0001294  61.2028 115.2750 15.65472822  3713,6750.016,91.985,372.755,371.008,0.0
51106.0,STARLINK-3176,PAYLOAD,2022-04-05 14:00:01,15.64459075,0.0001304,53.2175,255.8446,50.4106,284.1958,-0.0080033,-0.0071863999999999,0.0,0 STARLINK-3176,1 51106U 22005C   22095.58335648 -.00718640  00000-0 -80033-2 0  9996,2 51106  53.2175 255.8446 0001304  50.4106 284.1958 15.64459075  3709,6752.932,92.045,375.677,373.916,0.0
51106.0,STARLINK-3176,PAYLOAD,2022-04-05 16:00:00,15.64255427,0.0001308,53.2165,255.4401,62.4156,21.7466,-0.0067932,-0.00612989,0.0,0 STARLINK-3176,1 51106U 22005C   22095.66667824 -.00612989  00000-0 -67932-2 0  9991,2 51106  53.2165 255.4401 0001308  62.4156  21.7466 15.64255427 13375,6753.518,92.057,376.266,374.5,0.0
51106.0,STARLINK-3176,PAYLOAD,2022-04-05 22:00:00,15.6394624,0.0001142,53.2172,254.2162,58.1903,354.4642,-0.0081017,-0.00713206,0.0,0 STARLINK-3176,1 51106U 22005C   22095.91667824 -.00713206  00000-0 -81017-2 0  9993,2 51106  53.2172 254.2162 0001142  58.1903 354.4642 15.63946240  3709,6754.408,92.075,377.044,375.502,0.0
51106.0,STARLINK-3176,PAYLOAD,2022-04-06 06:00:02,15.63435574,0.0001355,53.2174,252.5856,48.9703,81.2513,-0.0082532999999999,-0.00712118,0.0,0 STARLINK-3176,1 51106U 22005C   22096.25002315 -.00712118  00000-0 -82533-2 0  9994,2 51106  53.2174 252.5856 0001355  48.9703  81.2513 15.63435574 13462,6755.879,92.105,378.659,376.828,0.0
51106.0,STARLINK-3176,PAYLOAD,2022-04-06 14:00:01,15.62926448,0.0001633,53.2177,250.9592,43.235,163.8084,-0.0084397,-0.00713626,0.0,0 STARLINK-3176,1 51106U 22005C   22096.58334491 -.00713626  00000-0 -84397-2 0  9998,2 51106  53.2177 250.9592 0001633  43.2350 163.8084 15.62926448  3721,6757.346,92.135,380.314,378.107,0.0
51106.0,STARLINK-3176,PAYLOAD,2022-04-06 22:00:00,15.62282768,0.0001329,53.216,249.3363,45.4312,237.957,-0.0063692,-0.00536692,0.0,0 STARLINK-3176,1 51106U 22005C   22096.91667824 -.00536692  00000-0 -63692-2 0  9995,2 51106  53.2160 249.3363 0001329  45.4312 237.9570 15.62282768  3661,6759.2019999999975,92.173,381.965,380.169,0.0
51106.0,STARLINK-3176,PAYLOAD,2022-04-07 06:00:00,15.61907713,0.0001516,53.2171,247.7078,36.1998,322.78,-0.0088034999999999,-0.00715049,0.0,0 STARLINK-3176,1 51106U 22005C   22097.25001157 -.00715049  00000-0 -88035-2 0  9997,2 51106  53.2171 247.7078 0001516  36.1998 322.7800 15.61907713 13622,6760.284000000002,92.195,383.174,381.124,0.0
51106.0,STARLINK-3176,PAYLOAD,2022-04-07 14:00:01,15.61398099,0.0001633,53.2174,246.0851,34.3056,39.7232,-0.0089947999999999,-0.00716133,0.0,0 STARLINK-3176,1 51106U 22005C   22097.58334491 -.00716133  00000-0 -89948-2 0  9992,2 51106  53.2174 246.0851 0001633  34.3056  39.7232 15.61398099  3704,6761.755,92.225,384.724,382.515,0.0
51106.0,STARLINK-3176,PAYLOAD,2022-04-07 22:00:00,15.60729707,0.0001571,53.2158,244.4654,47.8655,100.6868,-0.0064264,-0.00511398,0.0,0 STARLINK-3176,1 51106U 22005C   22097.91667824 -.00511398  00000-0 -64264-2 0  9998,2 51106  53.2158 244.4654 0001571  47.8655 100.6868 15.60729707  3676,6763.685,92.265,386.61300000000006,384.487,0.0
51106.0,STARLINK-3176,PAYLOAD,2022-04-08 06:00:00,15.6037615,0.0001484,53.2173,242.8403,47.7387,174.5517,-0.0093003,-0.00712024,0.0,0 STARLINK-3176,1 51106U 22005C   22098.25001157 -.00712024  00000-0 -93003-2 0  9999,2 51106  53.2173 242.8403 0001484  47.7387 174.5517 15.60376150 13785,6764.706999999999,92.285,387.576,385.568,0.0
51106.0,STARLINK-3176,PAYLOAD,2022-04-08 14:00:03,15.59867507,0.0001496999999999,53.2175,241.2217,45.5922,250.0379,-0.0095201,-0.00714488,0.0,0 STARLINK-3176,1 51106U 22005C   22098.58336806 -.00714488  00000-0 -95201-2 0  9995,2 51106  53.2175 241.2217 0001497  45.5922 250.0379 15.59867507  3704,6766.177,92.316,389.055,387.029,0.0
51106.0,STARLINK-3176,PAYLOAD,2022-04-08 22:00:00,15.59358298,0.0001264,53.2173,239.6038,48.6924,319.4048,-0.0097101,-0.00714588,0.0,0 STARLINK-3176,1 51106U 22005C   22098.91667824 -.00714588  00000-0 -97101-2 0  9991,2 51106  53.2173 239.6038 0001264  48.6924 319.4048 15.59358298  3684,6767.65,92.346,390.371,388.66,0.0
